[{"OBJECT_NAME":"CENTISPACE-1 S6","OBJECT_ID":"2022-126B","EPOCH":"2026-03-09T21:15:48.172608","MEAN_MOTION":14.62129457,"ECCENTRICITY":0.00134492,"INCLINATION":54.9982,"RA_OF_ASC_NODE":251.6889,"ARG_OF_PERICENTER":194.8443,"MEAN_ANOMALY":165.2158,"EPHEMERIS_TYPE":0,"CLASSIFICATION_TYPE":"U","NORAD_CAT_ID":54021,"ELEMENT_SET_NO":999,"REV_AT_EPOCH":18247,"BSTAR":0.0002040301,"MEAN_MOTION_DOT":8.46e-6,"MEAN_MOTION_DDOT":0},{"OBJECT_NAME":"COSMOS 1275 DEB","OBJECT_ID":"1981-053QE","EPOCH":"2026-03-09T22:28:31.651680","MEAN_MOTION":14.54530423,"ECCENTRICITY":0.00345003,"INCLINATION":82.9458,"RA_OF_ASC_NODE":254.4547,"ARG_OF_PERICENTER":73.2399,"MEAN_ANOMALY":287.2582,"EPHEMERIS_TYPE":0,"CLASSIFICATION_TYPE":"U","NORAD_CAT_ID":42118,"ELEMENT_SET_NO":999,"REV_AT_EPOCH":63632,"BSTAR":0.0035079073,"MEAN_MOTION_DOT":0.0001511,"MEAN_MOTION_DDOT":0}]
